OPTICUBE 04             
1 41851U 16067D   24143.44957574  .00005438  00000+0  41205-3 0  9992
2 41851  98.0755 307.3198 0019790 138.2795 221.9942 15.02567179411375
AEROCUBE 8D             
1 41852U 16067E   24143.40392190  .00010664  00000+0  70810-3 0  9997
2 41852  98.1055 311.2705 0005116 182.7208 177.3991 15.07411146411519
AEROCUBE 8C             
1 41853U 16067F   24143.41672739  .00011286  00000+0  74963-3 0  9993
2 41853  98.0858 309.9276 0008712 124.6897 235.5151 15.07360679411509
PROMETHEUS 2-1          
1 41854U 16067G   24143.42948517  .00022927  00000+0  11885-2 0  9992
2 41854  98.0983 316.8752 0013579 144.4394 215.7745 15.16104115411830
PROMETHEUS 2-3          
1 41855U 16067H   24143.42529998  .00022630  00000+0  11746-2 0  9998
2 41855  98.0911 316.3842 0011606 153.5036 206.6790 15.16084032411834
DIDO-2                  
1 42000U 17008BE  24144.12606772  .00176971  00000+0  92105-3 0  9998
2 42000  97.1329 204.9687 0005857 207.0213 153.0751 15.80436727404839
AALTO-1                 
1 42775U 17036L   24144.03979314  .00086562  00000+0  92655-3 0  9999
2 42775  97.1056 173.4307 0002756 264.1324  95.9621 15.63580490385179
URSA MAIOR              
1 42776U 17036M   24144.06806140  .00235730  00000+0  12079-2 0  9993
2 42776  97.0992 177.3749 0004460 217.4421 142.6537 15.80636754385422
CICERO 6                
1 42793U 17036AE  24144.03996015  .00402676  65381-4  11109-2 0  9996
2 42793  97.0723 181.8465 0005135 212.4632 147.6328 15.93874501385822
CORVUS BC2              
1 42846U 17042X   24143.46577935  .00006628  00000+0  57246-3 0  9996
2 42846  97.3737 330.0067 0009688 137.6163 222.5810 14.97507327373591
CORVUS BC1              
1 42847U 17042Y   24143.49621850  .00004945  00000+0  42674-3 0  9995
2 42847  97.3732 330.4360 0008820 137.4436 222.7472 14.97658748373618
MIRATA                  
1 43015U 17073C   24143.44900320  .00029614  00000+0  14187-2 0  9991
2 43015  97.5988  28.5033 0171887 349.5070  10.2586 15.06718416352452
MAKERSAT 0              
1 43016U 17073D   24144.10927176  .00018978  00000+0  10837-2 0  9993
2 43016  97.5835  23.7930 0197891   7.3603 353.0449 14.97622429352151
CORVUS BC3              
1 43118U 18004H   24144.18382913  .00382656  55878-4  13381-2 0  9995
2 43118  97.2803 229.8527 0006903 274.8311  85.2174 15.89225775354962
GOMX-4B                 
1 43196U 18015E   24143.99432975  .00061505  00000+0  73595-3 0  9998
2 43196  97.6053 315.7343 0006947  50.0113 310.1753 15.60761456351591
GOMX-4A                 
1 43197U 18015F   24144.16466271  .00106982  00000+0  84980-3 0  9994
2 43197  97.5963 320.6232 0004469  34.1888 325.9661 15.70910255351947
CICERO 10               
1 43690U 18088A   24144.15008969  .00145726  00000+0  10315-2 0  9996
2 43690  85.0135 197.3724 0001477  92.8460 267.2979 15.73548467308246
SIRION PATHFINDER-2     
1 43759U 18099B   24144.12189167  .00007022  00000+0  53264-3 0  9998
2 43759  97.5264 200.9732 0011733  16.8665 343.2948 15.02478142298740
CORVUS BC4              
1 43767U 18099K   24143.14459608  .00007327  00000+0  56509-3 0  9991
2 43767  97.5178 197.3177 0012028  86.0540 274.2059 15.01826764298487
MOVE-II                 
1 43780U 18099Y   24143.13974910  .00027248  00000+0  14667-2 0  9995
2 43780  97.5227 206.3863 0007618  77.9820 282.2265 15.14779183298988
SPACEBEE-7              
1 43816U 18099BL  24143.11715355  .00020597  00000+0  12363-2 0  9990
2 43816  97.5500 207.1443 0010042  26.4665 333.7076 15.10907071298477
SPACEBEE-6              
1 43818U 18099BN  24144.17770826  .00037908  00000+0  16639-2 0  9997
2 43818  97.5433 213.1297 0007654  24.8857 335.2747 15.21817335299106
SHIELDS 1               
1 43850U 18104B   24143.93442935  .00017238  00000+0  47347-3 0  9995
2 43850  85.0208 300.2437 0011731 158.3105 201.8644 15.37032282302283
SONATE                  
1 44400U 19038Q   24143.49625621  .00022905  00000+0  71472-3 0  9993
2 44400  97.7115 136.4677 0016235 188.3912 171.7060 15.33097439270147
LUCKY-7                 
1 44406U 19038W   24143.62424397  .00043456  00000+0  10061-2 0  9991
2 44406  97.7019 140.3442 0014612 169.5117 190.6437 15.42219117270423
BEESAT 9                
1 44412U 19038AC  24143.99178159  .00664282  18427-3  18383-2 0  9997
2 44412  97.6690 150.1309 0010829 162.4079 197.7572 15.93747388270835
JAISAT-1                
1 44419U 19038F   24143.50451621  .00511142  98968-4  19080-2 0  9999
2 44419  97.6697 150.4433 0010522 155.5160 204.6613 15.87854379271123
DUCHIFAT-3              
1 44854U 19089C   24144.16411356  .00017442  00000+0  89947-3 0  9991
2 44854  36.9561 200.8594 0007785 237.7533 122.2460 15.15653490244402
M2 PATHFINDER           
1 45727U 20037E   24144.05456365  .00004926  00000+0  43302-3 0  9991
2 45727  97.7763 320.6280 0010642 200.3714 159.7085 14.96968634212182
NETSAT-4                
1 46504U 20068U   24143.84020674  .00013779  00000+0  74638-3 0  9997
2 46504  97.8046 100.3076 0012254  90.5209 269.7426 15.14673120200335
NETSAT-3                
1 46505U 20068V   24143.88145912  .00011901  00000+0  65522-3 0  9992
2 46505  97.8022  99.8885 0011608  96.9880 263.2672 15.14138670200335
NETSAT-1                
1 46506U 20068W   24143.83835503  .00010006  00000+0  57623-3 0  9998
2 46506  97.8039  99.3753 0010058 106.0988 254.1350 15.12588728200291
NETSAT-2                
1 46507U 20068X   24143.85576417  .00012584  00000+0  68420-3 0  9997
2 46507  97.8033  99.9642 0009722 109.7156 250.5124 15.14587363200286
WILDTRACKCUBE-SIMBA     
1 47941U 21022K   24144.17524436  .00016372  00000+0  74344-3 0  9992
2 47941  97.4641  41.1756 0014154 225.9079 134.0992 15.20770499174667
BEESAT-6                
1 47957U 21022AB  24143.18028863  .00218158  00000+0  25775-2 0  9991
2 47957  97.4394  50.1094 0009694 158.5311 201.6355 15.60535150174994
SMOG-1                  
1 47964U 21022AJ  24143.94092901  .00143188  00000+0  18198-2 0  9998
2 47964  97.4653  54.0130 0011060 152.0313 208.1540 15.58837652174295
BCCSAT-1                
1 48041U 21022AK  24143.51132782  .00081718  00000+0  17074-2 0  9992
2 48041  97.4657  49.8645 0009119 161.7532 198.4045 15.45166427173966
BEESAT-5                
1 48083U 21022AM  24141.72855085  .00435692  00000+0  31606-2 0  9998
2 48083  97.4104  49.8502 0010373 150.0178 210.1682 15.72085618174032
BEESAT-7                
1 48084U 21022AN  24143.24825422  .00124313  00000+0  18682-2 0  9994
2 48084  97.4619  50.3022 0010423 166.3724 193.7813 15.54374956173724
BEESAT-8                
1 48085U 21022AP  24142.70074574  .00035788  00000+0  11864-2 0  9991
2 48085  97.4777  44.5322 0011269 208.0591 152.0044 15.31125178173823
LEDSAT                  
1 49069U 21073D   24144.17715323  .00018866  00000+0  77674-3 0  9997
2 49069  97.4387 215.4891 0019195  16.0072 344.1768 15.23995371152645
SITRO-AIS 5 (KATYS)     
1 57176U 23091L   24144.21326698  .00010225  00000+0  66487-3 0  9996
2 57176  97.6146 196.6153 0017531 202.0128 158.0349 15.08061822 49730
SITRO-AIS 6 (CHIRKIN)   
1 57192U 23091AC  24144.19942055  .00009618  00000+0  62474-3 0  9998
2 57192  97.6143 196.6252 0017316 201.4151 158.6355 15.08122511 49731
SITRO-AIS 8 (ANOKHIN)   
1 57193U 23091AD  24144.17237092  .00011256  00000+0  72464-3 0  9996
2 57193  97.6131 196.6533 0017171 203.5862 156.4580 15.08407608 49731
SITRO-AIS 7 (FARTUSHNIY)
1 57194U 23091AE  24144.20371619  .00010023  00000+0  65156-3 0  9996
2 57194  97.6142 196.6133 0017138 201.9398 158.1099 15.08080989 49732
SITRO-AIS 10 (BURDAEV)  
1 57199U 23091AK  24144.17234439  .00012395  00000+0  76099-3 0  9997
2 57199  97.6149 197.4807 0012613 190.1166 169.9811 15.10177738 49785
SITRO-AIS 9 (SHCHUKIN)  
1 57201U 23091AM  24144.17042146  .00012469  00000+0  76576-3 0  9995
2 57201  97.6145 197.4616 0012580 190.0080 170.0900 15.10164920 49781
SITRO-AIS 12 (SMIRENNIY)
1 57204U 23091AQ  24144.20228229  .00011422  00000+0  69825-3 0  9997
2 57204  97.6160 197.6145 0012649 182.8409 177.2750 15.10354665 49790
SITRO-AIS 11 (SHEFFER)  
1 57208U 23091AU  24144.18931950  .00011209  00000+0  68388-3 0  9996
2 57208  97.6153 197.6215 0012475 183.7403 176.3735 15.10434105 49796
SITRO-AIS 29            
1 59052U 24039B   24144.19784230  .00025095  00000+0  95161-3 0  9993
2 59052  97.3909 106.4264 0015577 309.6205  50.3658 15.26745238 12781
SITRO-AIS 30            
1 59053U 24039C   24144.19707073  .00025230  00000+0  95696-3 0  9998
2 59053  97.3906 106.4247 0015748 310.5770  49.4097 15.26733690 12772
SITRO-AIS 31            
1 59054U 24039D   24144.19220504  .00025422  00000+0  96122-3 0  9996
2 59054  97.3907 106.4312 0015632 310.3338  49.6534 15.26837707 12791
SITRO-AIS 33            
1 59055U 24039E   24144.18638916  .00026318  00000+0  99126-3 0  9998
2 59055  97.3911 106.4419 0015367 311.4507  48.5411 15.26962825 12781
SITRO-AIS 35            
1 59056U 24039F   24144.18351578  .00026601  00000+0  10006-2 0  9999
2 59056  97.3910 106.4444 0015182 311.7455  48.2485 15.27006867 12783
SITRO-AIS 32            
1 59057U 24039G   24144.18746266  .00025187  00000+0  95130-3 0  9992
2 59057  97.3911 106.4398 0015236 311.8375  48.1562 15.26881630 12788
SITRO-AIS 34            
1 59058U 24039H   24144.18539108  .00027463  00000+0  10347-2 0  9993
2 59058  97.3912 106.4442 0015358 311.6121  48.3802 15.26943846 12789
SITRO-AIS 36            
1 59059U 24039J   24144.18020649  .00026421  00000+0  99246-3 0  9998
2 59059  97.3910 106.4491 0014915 312.0255  47.9713 15.27057588 12789
SITRO-AIS 49            
1 59060U 24039K   24144.17970307  .00026776  00000+0  10065-2 0  9998
2 59060  97.3909 106.4496 0014962 311.5656  48.4299 15.27031082 12781
SITRO-AIS 50            
1 59061U 24039L   24144.17432588  .00028640  00000+0  10709-2 0  9990
2 59061  97.3908 106.4564 0014895 311.9970  47.9999 15.27192306 12783
